ICEYE-X6                
1 46497U 20068M   26160.21032916  .00002541  00000+0  18632-3 0  9999
2 46497  98.0961 153.5009 0008494 112.8113 247.4010 15.04472799312035
NETSAT-4                
1 46504U 20068U   26159.76302284  .00018603  00000+0  41540-3 0  9994
2 46504  97.8612 167.3284 0004934  12.8188 347.3184 15.43586088314470
NETSAT-3                
1 46505U 20068V   26159.76279341  .00019055  00000+0  44273-3 0  9990
2 46505  97.8660 165.5554 0005393  31.0112 329.1451 15.42389149314387
NETSAT-1                
1 46506U 20068W   26159.98450189  .00012410  00000+0  37418-3 0  9997
2 46506  97.8749 160.2219 0005968  55.5547 304.6258 15.34449215314045
NETSAT-2                
1 46507U 20068X   26160.00870838  .00019387  00000+0  40371-3 0  9992
2 46507  97.8623 167.4592 0004567  48.2139 311.9499 15.45645345314479
TIANQI-6                
1 46810U 20076D   26160.12277462  .00003168  00000+0  20828-3 0  9990
2 46810  34.9985  97.9553 0009182  99.4106 260.7642 15.07128100307367
KSM1-C                  
1 46906U 20081B   26160.18091056  .00007608  00000+0  28722-3 0  9995
2 46906  36.8942 108.3653 0001853 203.1039 156.9627 15.26602669307942
KSM1-D                  
1 46907U 20081C   26160.17202948  .00006215  00000+0  24990-3 0  9995
2 46907  36.8950 117.2751 0004427 211.2992 148.7493 15.24603262307878
KSM1-A                  
1 46912U 20081H   26160.18003524  .00007290  00000+0  28182-3 0  9992
2 46912  36.8952 110.7052 0004638 257.0869 102.9363 15.25829109307951
R2                      
1 46913U 20081J   26160.13316929  .00006606  00000+0  25956-3 0  9990
2 46913  36.8973 110.9294 0008491 224.5897 135.4169 15.25316026310752
KSM1-B                  
1 46914U 20081K   26160.17437582  .00006735  00000+0  27203-3 0  9994
2 46914  36.9008 117.8462 0006508 225.8665 134.1549 15.24397030310964
GONETS-M 20             
1 47227U 20091A   26160.19785030  .00000065  00000+0  39819-3 0  9995
2 47227  82.5044 307.4034 0020793 195.3335 164.7117 12.42893491250083
GONETS-M 21             
1 47228U 20091B   26160.17167400  .00000093  00000+0  59862-3 0  9990
2 47228  82.4969 306.1315 0014379 208.6758 151.3532 12.42886604250077
GONETS-M 22             
1 47229U 20091C   26160.14480550  .00000108  00000+0  70610-3 0  9993
2 47229  82.5027 307.0432 0021742 190.8185 169.2430 12.42892761250023
CUBEL                   
1 47448U 21006AM  26159.65578455  .00009545  00000+0  23397-3 0  9993
2 47448  97.2333 210.3218 0006318 187.3006 172.8150 15.40916074298444
ARKTIKA-M 1             
1 47719U 21016A   26153.03917935 -.00000200  00000+0  00000+0 0  9993
2 47719  63.2379  59.8266 7283239 269.8643  14.6915  2.00628509 38489
STARLINK-2342           
1 47883U 21021Z   26160.16670139  .01779526  00000+0  93064-2 0  9994
2 47883  53.1557 188.2164 0001372  90.9300  50.3517 15.77315521  5971
GRUS-1B                 
1 47934U 21022C   26160.16630839  .00002167  00000+0  18326-3 0  9993
2 47934  97.5406  43.6275 0016377 357.1823   2.9306 14.98980503284696
UNISAT-7                
1 47945U 21022P   26160.03918478  .00011853  00000+0  29608-3 0  9996
2 47945  97.3896  64.8794 0011205 102.0000 258.2503 15.40245432288602
GLOBAL-9                
1 47971U 21023G   26159.66225456  .00020695  00000+0  41692-3 0  9991
2 47971  44.9808 298.4331 0004997 275.1170  84.9150 15.46273117293621
AII-BRAVO               
1 48270U 21034C   26160.10122538  .00004112  00000+0  30656-3 0  9998
2 48270  97.5620 215.1949 0004794 295.6505  64.4225 15.03414511278408
TYVAK-182A              
1 48271U 21034D   26160.09207566  .00004143  00000+0  28761-3 0  9990
2 48271  97.5732 219.1504 0005856  16.4727 343.6690 15.06097008278611
CSS (TIANHE)            
1 48274U 21035A   26160.04189559  .00019551  00000+0  23399-3 0  9991
2 48274  41.4695  11.5598 0008491  12.4577 347.6471 15.60465773291898
TYVAK-0130              
1 48606U 21041BF  26159.99756385  .00006835  00000+0  26336-3 0  9991
2 48606  52.9972  64.1153 0010935 138.3116 221.8717 15.27457422279130
HAIYANG-2D              
1 48621U 21043A   26160.19546877 -.00000009  00000+0  65141-4 0  9993
2 48621  65.9999 324.5969 0011386 270.0806  89.8958 13.83375610255444
2021-050D               
1 48843U 21050D   26160.19014523  .00005223  00000+0  22336-3 0  9995
2 48843  97.3335 236.4077 0004005 301.8701  58.2146 15.23252381277742
TYVAK-0173              
1 48892U 21059P   26159.75712069  .00001917  00000+0  24621-3 0  9993
2 48892  96.0086 238.2091 0010761  64.4941 295.7389 14.81864455266991
MANDRAKE 2 ABLE         
1 48907U 21059AE  26160.19362269  .00020206  00000+0  30622-3 0  9993
2 48907  97.7042 349.3705 0005140  35.2754 324.8838 15.54666497275885
MANDRAKE 2 BAKER        
1 48908U 21059AF  26160.08428840  .00022787  00000+0  29239-3 0  9998
2 48908  97.7013 352.0688 0003610  37.4524 322.6983 15.59147610276035
