OBJECT_NAME,OBJECT_ID,EPOCH,MEAN_MOTION,ECCENTRICITY,INCLINATION,RA_OF_ASC_NODE,ARG_OF_PERICENTER,MEAN_ANOMALY,EPHEMERIS_TYPE,CLASSIFICATION_TYPE,NORAD_CAT_ID,ELEMENT_SET_NO,REV_AT_EPOCH,BSTAR,MEAN_MOTION_DOT,MEAN_MOTION_DDOT
ICEYE-X6,2020-068M,2026-06-09T05:02:52.439424,15.04472799,.0008494,98.0961,153.5009,112.8113,247.4010,0,U,46497,999,31203,.18632E-3,.2541E-4,0
NETSAT-4,2020-068U,2026-06-08T18:18:45.173376,15.43586088,.0004934,97.8612,167.3284,12.8188,347.3184,0,U,46504,999,31447,.4154E-3,.18603E-3,0
NETSAT-3,2020-068V,2026-06-08T18:18:25.350624,15.42389149,.0005393,97.8660,165.5554,31.0112,329.1451,0,U,46505,999,31438,.44273E-3,.19055E-3,0
NETSAT-1,2020-068W,2026-06-08T23:37:40.963296,15.34449215,.0005968,97.8749,160.2219,55.5547,304.6258,0,U,46506,999,31404,.37418E-3,.1241E-3,0
NETSAT-2,2020-068X,2026-06-09T00:12:32.404032,15.45645345,.0004567,97.8623,167.4592,48.2139,311.9499,0,U,46507,999,31447,.40371E-3,.19387E-3,0
TIANQI-6,2020-076D,2026-06-09T02:56:47.727168,15.07128100,.0009182,34.9985,97.9553,99.4106,260.7642,0,U,46810,999,30736,.20828E-3,.3168E-4,0
KSM1-C,2020-081B,2026-06-09T04:20:30.672384,15.26602669,.0001853,36.8942,108.3653,203.1039,156.9627,0,U,46906,999,30794,.28722E-3,.7608E-4,0
KSM1-D,2020-081C,2026-06-09T04:07:43.347072,15.24603262,.0004427,36.8950,117.2751,211.2992,148.7493,0,U,46907,999,30787,.2499E-3,.6215E-4,0
KSM1-A,2020-081H,2026-06-09T04:19:15.044736,15.25829109,.0004638,36.8952,110.7052,257.0869,102.9363,0,U,46912,999,30795,.28182E-3,.729E-4,0
R2,2020-081J,2026-06-09T03:11:45.826656,15.25316026,.0008491,36.8973,110.9294,224.5897,135.4169,0,U,46913,999,31075,.25956E-3,.6606E-4,0
KSM1-B,2020-081K,2026-06-09T04:11:06.070848,15.24397030,.0006508,36.9008,117.8462,225.8665,134.1549,0,U,46914,999,31096,.27203E-3,.6735E-4,0
GONETS-M 20,2020-091A,2026-06-09T04:44:54.265920,12.42893491,.0020793,82.5044,307.4034,195.3335,164.7117,0,U,47227,999,25008,.39819E-3,.65E-6,0
GONETS-M 21,2020-091B,2026-06-09T04:07:12.633600,12.42886604,.0014379,82.4969,306.1315,208.6758,151.3532,0,U,47228,999,25007,.59862E-3,.93E-6,0
GONETS-M 22,2020-091C,2026-06-09T03:28:31.195200,12.42892761,.0021742,82.5027,307.0432,190.8185,169.2430,0,U,47229,999,25002,.7061E-3,.108E-5,0
CUBEL,2021-006AM,2026-06-08T15:44:19.785120,15.40916074,.0006318,97.2333,210.3218,187.3006,172.8150,0,U,47448,999,29844,.23397E-3,.9545E-4,0
ARKTIKA-M 1,2021-016A,2026-06-02T00:56:25.095840,2.00628509,.72832396,63.2379,59.8266,269.8643,14.6915,0,U,47719,999,3848,0,-.2E-5,0
STARLINK-2342,2021-021Z,2026-06-09T04:00:03.000096,15.77315521,.0001372,53.1557,188.2164,90.9300,50.3517,0,U,47883,999,597,.93064E-2,.1779526E-1,0
GRUS-1B,2021-022C,2026-06-09T03:59:29.044896,14.98980503,.0016377,97.5406,43.6275,357.1823,2.9306,0,U,47934,999,28469,.18326E-3,.2167E-4,0
UNISAT-7,2021-022P,2026-06-09T00:56:25.564992,15.40245432,.0011205,97.3896,64.8794,102.0000,258.2503,0,U,47945,999,28860,.29608E-3,.11853E-3,0
GLOBAL-9,2021-023G,2026-06-08T15:53:38.793984,15.46273117,.0004997,44.9808,298.4331,275.1170,84.9150,0,U,47971,999,29362,.41692E-3,.20695E-3,0
AII-BRAVO,2021-034C,2026-06-09T02:25:45.872832,15.03414511,.0004794,97.5620,215.1949,295.6505,64.4225,0,U,48270,999,27840,.30656E-3,.4112E-4,0
TYVAK-182A,2021-034D,2026-06-09T02:12:35.337024,15.06097008,.0005856,97.5732,219.1504,16.4727,343.6690,0,U,48271,999,27861,.28761E-3,.4143E-4,0
CSS (TIANHE),2021-035A,2026-06-09T01:00:19.778976,15.60465773,.0008491,41.4695,11.5598,12.4577,347.6471,0,U,48274,999,29189,.23399E-3,.19551E-3,0
TYVAK-0130,2021-041BF,2026-06-08T23:56:29.516640,15.27457422,.0010935,52.9972,64.1153,138.3116,221.8717,0,U,48606,999,27913,.26336E-3,.6835E-4,0
HAIYANG-2D,2021-043A,2026-06-09T04:41:28.501728,13.83375610,.0011386,65.9999,324.5969,270.0806,89.8958,0,U,48621,999,25544,.65141E-4,-.9E-7,0
2021-050D,2021-050D,2026-06-09T04:33:48.547872,15.23252381,.0004005,97.3335,236.4077,301.8701,58.2146,0,U,48843,999,27774,.22336E-3,.5223E-4,0
TYVAK-0173,2021-059P,2026-06-08T18:10:15.227616,14.81864455,.0010761,96.0086,238.2091,64.4941,295.7389,0,U,48892,999,26699,.24621E-3,.1917E-4,0
MANDRAKE 2 ABLE,2021-059AE,2026-06-09T04:38:49.000416,15.54666497,.000514,97.7042,349.3705,35.2754,324.8838,0,U,48907,999,27588,.30622E-3,.20206E-3,0
MANDRAKE 2 BAKER,2021-059AF,2026-06-09T02:01:22.517760,15.59147610,.000361,97.7013,352.0688,37.4524,322.6983,0,U,48908,999,27603,.29239E-3,.22787E-3,0
